start=new Date('2022-05-12T00:00:00.000Z').valueOf();
sats=[{"MEAN_MOTION_DOT":"-0.00000942","TLE_LINE2":"2 48134  53.0546 328.0009 0001319  75.9951 284.1185 15.06389736 61685","OBJECT_ID":"2021-027AU","CENTER_NAME":"EARTH","OBJECT_TYPE":"PAYLOAD","PERIOD":"95.593","OBJECT_NAME":"STARLINK-2476","GP_ID":"203275206","APOAPSIS":"548.158","TLE_LINE1":"1 48134U 21027AU  22131.57611519 -.00000942  00000-0 -44352-4 0  9995","INCLINATION":"53.0546","SITE":"AFETR","ELEMENT_SET_NO":"999","SEMIMAJOR_AXIS":"6925.380","COUNTRY_CODE":"US","LAUNCH_DATE":"2021-04-07","FILE":"3440740","EPOCH":"2022-05-11T13:49:36.352416","ARG_OF_PERICENTER":"75.9951","BSTAR":"-0.00004435200000","MEAN_ELEMENT_THEORY":"SGP4","PERIAPSIS":"546.332","RCS_SIZE":"LARGE","REV_AT_EPOCH":"6168","RA_OF_ASC_NODE":"328.0009","MEAN_MOTION":"15.06389736","MEAN_ANOMALY":"284.1185","NORAD_CAT_ID":"48134","CLASSIFICATION_TYPE":"U","MEAN_MOTION_DDOT":"0.0000000000000","TIME_SYSTEM":"UTC","ECCENTRICITY":"0.00013190","REF_FRAME":"TEME","DECAY_DATE":null,"EPHEMERIS_TYPE":"0"},{"ELEMENT_SET_NO":"999","SITE":"AFETR","TLE_LINE1":"1 48135U 21027AV  22131.69450027  .00000011  00000-0  19664-4 0  9997","INCLINATION":"53.0550","BSTAR":"0.00001966400000","EPOCH":"2022-05-11T16:40:04.823328","ARG_OF_PERICENTER":"81.5509","LAUNCH_DATE":"2021-04-07","FILE":"3441154","COUNTRY_CODE":"US","SEMIMAJOR_AXIS":"6925.373","PERIOD":"95.593","OBJECT_TYPE":"PAYLOAD","TLE_LINE2":"2 48135  53.0550 332.4637 0001225  81.5509 278.5619 15.06392021 61630","OBJECT_ID":"2021-027AV","CENTER_NAME":"EARTH","MEAN_MOTION_DOT":"0.00000011","APOAPSIS":"548.086","GP_ID":"203309987","OBJECT_NAME":"STARLINK-2478","TIME_SYSTEM":"UTC","MEAN_MOTION_DDOT":"0.0000000000000","EPHEMERIS_TYPE":"0","DECAY_DATE":null,"REF_FRAME":"TEME","ECCENTRICITY":"0.00012250","RA_OF_ASC_NODE":"332.4637","REV_AT_EPOCH":"6163","RCS_SIZE":"LARGE","PERIAPSIS":"546.390","MEAN_ELEMENT_THEORY":"SGP4","CLASSIFICATION_TYPE":"U","NORAD_CAT_ID":"48135","MEAN_MOTION":"15.06392021","MEAN_ANOMALY":"278.5619"},{"OBJECT_TYPE":"PAYLOAD","PERIOD":"95.593","TLE_LINE2":"2 48136  53.0546 328.1836 0001555  73.1774 286.9386 15.06390569 61680","OBJECT_ID":"2021-027AW","CENTER_NAME":"EARTH","MEAN_MOTION_DOT":"-0.00000318","GP_ID":"203276192","APOAPSIS":"548.319","OBJECT_NAME":"STARLINK-2479","ELEMENT_SET_NO":"999","INCLINATION":"53.0546","TLE_LINE1":"1 48136U 21027AW  22131.53556705 -.00000318  00000-0 -24798-5 0  9998","SITE":"AFETR","BSTAR":"-0.00000247980000","ARG_OF_PERICENTER":"73.1774","EPOCH":"2022-05-11T12:51:12.993120","COUNTRY_CODE":"US","SEMIMAJOR_AXIS":"6925.377","LAUNCH_DATE":"2021-04-07","FILE":"3440740","REV_AT_EPOCH":"6168","RCS_SIZE":"LARGE","RA_OF_ASC_NODE":"328.1836","MEAN_ELEMENT_THEORY":"SGP4","PERIAPSIS":"546.166","CLASSIFICATION_TYPE":"U","NORAD_CAT_ID":"48136","MEAN_ANOMALY":"286.9386","MEAN_MOTION":"15.06390569","MEAN_MOTION_DDOT":"0.0000000000000","TIME_SYSTEM":"UTC","EPHEMERIS_TYPE":"0","DECAY_DATE":null,"ECCENTRICITY":"0.00015550","REF_FRAME":"TEME"},{"SITE":"AFETR","INCLINATION":"53.0553","TLE_LINE1":"1 48137U 21027AX  22131.89400600  .00005299  00000-0  37431-3 0  9997","ELEMENT_SET_NO":"999","FILE":"3441154","LAUNCH_DATE":"2021-04-07","SEMIMAJOR_AXIS":"6925.328","COUNTRY_CODE":"US","EPOCH":"2022-05-11T21:27:22.118400","ARG_OF_PERICENTER":"62.3575","BSTAR":"0.00037431000000","MEAN_MOTION_DOT":"0.00005299","TLE_LINE2":"2 48137  53.0553 306.5682 0001497  62.3575 297.7566 15.06406697 62010","CENTER_NAME":"EARTH","OBJECT_ID":"2021-027AX","PERIOD":"95.592","OBJECT_TYPE":"PAYLOAD","OBJECT_NAME":"STARLINK-2480","APOAPSIS":"548.230","GP_ID":"203308487","TIME_SYSTEM":"UTC","MEAN_MOTION_DDOT":"0.0000000000000","REF_FRAME":"TEME","ECCENTRICITY":"0.00014970","DECAY_DATE":null,"EPHEMERIS_TYPE":"0","PERIAPSIS":"546.156","MEAN_ELEMENT_THEORY":"SGP4","RA_OF_ASC_NODE":"306.5682","RCS_SIZE":"LARGE","REV_AT_EPOCH":"6201","MEAN_MOTION":"15.06406697","MEAN_ANOMALY":"297.7566","NORAD_CAT_ID":"48137","CLASSIFICATION_TYPE":"U"},{"MEAN_MOTION_DOT":"-0.00006468","TLE_LINE2":"2 48138  53.0551 327.9581 0001176  62.8750 297.2358 15.06420569 61699","CENTER_NAME":"EARTH","OBJECT_ID":"2021-027AY","OBJECT_TYPE":"PAYLOAD","PERIOD":"95.591","OBJECT_NAME":"STARLINK-2481","GP_ID":"203309236","APOAPSIS":"547.965","TLE_LINE1":"1 48138U 21027AY  22131.58716916 -.00006468  00000-0 -41547-3 0  9998","INCLINATION":"53.0551","SITE":"AFETR","ELEMENT_SET_NO":"999","SEMIMAJOR_AXIS":"6925.286","COUNTRY_CODE":"US","FILE":"3441154","LAUNCH_DATE":"2021-04-07","ARG_OF_PERICENTER":"62.8750","EPOCH":"2022-05-11T14:05:31.415424","BSTAR":"-0.00041547000000","PERIAPSIS":"546.336","MEAN_ELEMENT_THEORY":"SGP4","RCS_SIZE":"LARGE","REV_AT_EPOCH":"6169","RA_OF_ASC_NODE":"327.9581","MEAN_ANOMALY":"297.2358","MEAN_MOTION":"15.06420569","CLASSIFICATION_TYPE":"U","NORAD_CAT_ID":"48138","MEAN_MOTION_DDOT":"0.0000000000000","TIME_SYSTEM":"UTC","ECCENTRICITY":"0.00011760","REF_FRAME":"TEME","DECAY_DATE":null,"EPHEMERIS_TYPE":"0"},{"CLASSIFICATION_TYPE":"U","NORAD_CAT_ID":"48139","MEAN_ANOMALY":"280.9512","MEAN_MOTION":"15.06394991","PERIAPSIS":"546.276","MEAN_ELEMENT_THEORY":"SGP4","RA_OF_ASC_NODE":"306.7982","REV_AT_EPOCH":"6201","RCS_SIZE":"LARGE","REF_FRAME":"TEME","ECCENTRICITY":"0.00013760","EPHEMERIS_TYPE":"0","DECAY_DATE":null,"TIME_SYSTEM":"UTC","MEAN_MOTION_DDOT":"0.0000000000000","OBJECT_NAME":"STARLINK-2482","APOAPSIS":"548.182","GP_ID":"203309487","TLE_LINE2":"2 48139  53.0569 306.7982 0001376  79.1632 280.9512 15.06394991 62018","CENTER_NAME":"EARTH","OBJECT_ID":"2021-027AZ","MEAN_MOTION_DOT":"0.00000523","PERIOD":"95.592","OBJECT_TYPE":"PAYLOAD","FILE":"3441154","LAUNCH_DATE":"2021-04-07","COUNTRY_CODE":"US","SEMIMAJOR_AXIS":"6925.364","BSTAR":"0.00005401200000","EPOCH":"2022-05-11T20:14:24.696096","ARG_OF_PERICENTER":"79.1632","SITE":"AFETR","TLE_LINE1":"1 48139U 21027AZ  22131.84334139  .00000523  00000-0  54012-4 0  9997","INCLINATION":"53.0569","ELEMENT_SET_NO":"999"},{"APOAPSIS":"548.237","GP_ID":"203276692","OBJECT_NAME":"STARLINK-2483","PERIOD":"95.594","OBJECT_TYPE":"PAYLOAD","CENTER_NAME":"EARTH","TLE_LINE2":"2 48140  53.0550 328.1451 0001361  74.2319 285.8820 15.06373715 61680","OBJECT_ID":"2021-027BA","MEAN_MOTION_DOT":"0.00005656","BSTAR":"0.00039858000000","EPOCH":"2022-05-11T13:05:47.597856","ARG_OF_PERICENTER":"74.2319","LAUNCH_DATE":"2021-04-07","FILE":"3440740","COUNTRY_CODE":"US","SEMIMAJOR_AXIS":"6925.429","ELEMENT_SET_NO":"999","SITE":"AFETR","TLE_LINE1":"1 48140U 21027BA  22131.54568979  .00005656  00000-0  39858-3 0  9999","INCLINATION":"53.0550","NORAD_CAT_ID":"48140","CLASSIFICATION_TYPE":"U","MEAN_ANOMALY":"285.8820","MEAN_MOTION":"15.06373715","RA_OF_ASC_NODE":"328.1451","REV_AT_EPOCH":"6168","RCS_SIZE":"LARGE","MEAN_ELEMENT_THEORY":"SGP4","PERIAPSIS":"546.352","EPHEMERIS_TYPE":"0","DECAY_DATE":null,"REF_FRAME":"TEME","ECCENTRICITY":"0.00013610","TIME_SYSTEM":"UTC","MEAN_MOTION_DDOT":"0.0000000000000"},{"CLASSIFICATION_TYPE":"U","NORAD_CAT_ID":"48141","MEAN_MOTION":"15.06402295","MEAN_ANOMALY":"298.6202","REV_AT_EPOCH":"6174","RCS_SIZE":"LARGE","RA_OF_ASC_NODE":"326.8357","PERIAPSIS":"546.096","MEAN_ELEMENT_THEORY":"SGP4","EPHEMERIS_TYPE":"0","DECAY_DATE":null,"ECCENTRICITY":"0.00016040","REF_FRAME":"TEME","MEAN_MOTION_DDOT":"0.0000000000000","TIME_SYSTEM":"UTC","GP_ID":"203308987","APOAPSIS":"548.317","OBJECT_NAME":"STARLINK-2484","OBJECT_TYPE":"PAYLOAD","PERIOD":"95.592","TLE_LINE2":"2 48141  53.0533 326.8357 0001604  61.4948 298.6202 15.06402295 61747","OBJECT_ID":"2021-027BB","CENTER_NAME":"EARTH","MEAN_MOTION_DOT":"0.00002900","BSTAR":"0.00021350000000","ARG_OF_PERICENTER":"61.4948","EPOCH":"2022-05-11T20:01:08.022432","COUNTRY_CODE":"US","SEMIMAJOR_AXIS":"6925.342","FILE":"3441154","LAUNCH_DATE":"2021-04-07","ELEMENT_SET_NO":"999","TLE_LINE1":"1 48141U 21027BB  22131.83412063  .00002900  00000-0  21350-3 0  9991","INCLINATION":"53.0533","SITE":"AFETR"},{"OBJECT_NAME":"STARLINK-2485","APOAPSIS":"548.210","GP_ID":"203308737","TLE_LINE2":"2 48142  53.0561 306.8206 0001430  90.8808 269.2345 15.06398047 62010","CENTER_NAME":"EARTH","OBJECT_ID":"2021-027BC","MEAN_MOTION_DOT":"0.00000112","PERIOD":"95.592","OBJECT_TYPE":"PAYLOAD","LAUNCH_DATE":"2021-04-07","FILE":"3441154","COUNTRY_CODE":"US","SEMIMAJOR_AXIS":"6925.355","BSTAR":"0.00002641300000","EPOCH":"2022-05-11T20:09:05.848128","ARG_OF_PERICENTER":"90.8808","SITE":"AFETR","INCLINATION":"53.0561","TLE_LINE1":"1 48142U 21027BC  22131.83965102  .00000112  00000-0  26413-4 0  9998","ELEMENT_SET_NO":"999","NORAD_CAT_ID":"48142","CLASSIFICATION_TYPE":"U","MEAN_ANOMALY":"269.2345","MEAN_MOTION":"15.06398047","PERIAPSIS":"546.229","MEAN_ELEMENT_THEORY":"SGP4","RA_OF_ASC_NODE":"306.8206","REV_AT_EPOCH":"6201","RCS_SIZE":"LARGE","REF_FRAME":"TEME","ECCENTRICITY":"0.00014300","EPHEMERIS_TYPE":"0","DECAY_DATE":null,"TIME_SYSTEM":"UTC","MEAN_MOTION_DDOT":"0.0000000000000"},{"PERIAPSIS":"546.139","MEAN_ELEMENT_THEORY":"SGP4","RA_OF_ASC_NODE":"262.1937","REV_AT_EPOCH":"6262","RCS_SIZE":"LARGE","CLASSIFICATION_TYPE":"U","NORAD_CAT_ID":"48143","MEAN_ANOMALY":"283.7711","MEAN_MOTION":"15.06395316","TIME_SYSTEM":"UTC","MEAN_MOTION_DDOT":"0.0000000000000","REF_FRAME":"TEME","ECCENTRICITY":"0.00015730","EPHEMERIS_TYPE":"0","DECAY_DATE":null,"OBJECT_ID":"2021-027BD","TLE_LINE2":"2 48143  53.0549 262.1937 0001573  76.3453 283.7711 15.06395316 62626","CENTER_NAME":"EARTH","MEAN_MOTION_DOT":"0.00000852","PERIOD":"95.592","OBJECT_TYPE":"PAYLOAD","OBJECT_NAME":"STARLINK-2486","APOAPSIS":"548.317","GP_ID":"203309988","SITE":"AFETR","TLE_LINE1":"1 48143U 21027BD  22131.75624148  .00000852  00000-0  76079-4 0  9996","INCLINATION":"53.0549","ELEMENT_SET_NO":"999","FILE":"3441154","LAUNCH_DATE":"2021-04-07","COUNTRY_CODE":"US","SEMIMAJOR_AXIS":"6925.363","BSTAR":"0.00007607900000","ARG_OF_PERICENTER":"76.3453","EPOCH":"2022-05-11T18:08:59.263872"}];
